GSAT0101 (GALILEO-PFM)  
1 37846U 11060A   26053.46432651 -.00000082  00000+0  00000+0 0  9992
2 37846  57.0318 344.8758 0003975 357.0591   2.9533  1.70475478 89166
GSAT0102 (GALILEO-FM2)  
1 37847U 11060B   26053.09802566 -.00000081  00000+0  00000+0 0  9997
2 37847  57.0325 344.8861 0005461 338.0997 202.6314  1.70475770 89162
GSAT0103 (GALILEO-FM3)  
1 38857U 12055A   26059.37062073  .00000009  00000+0  00000+0 0  9991
2 38857  55.7357 104.5311 0005306 284.5770  75.4441  1.70473336 83153
GSAT0201 (GALILEO 5)    
1 40128U 14050A   26057.38590622  .00000013  00000+0  00000+0 0  9992
2 40128  48.9939 277.9705 1656870 175.1037 186.7695  1.85519850 76268
GSAT0202 (GALILEO 6)    
1 40129U 14050B   26058.18083150  .00000012  00000+0  00000+0 0  9994
2 40129  49.0095 277.0224 1657890 175.8719 185.7122  1.85520639 78441
GSAT0203 (GALILEO 7)    
1 40544U 15017A   26058.52158611 -.00000103  00000+0  00000+0 0  9994
2 40544  56.8234 344.5881 0005161 295.0116  64.9415  1.70475495 67337
GSAT0204 (GALILEO 8)    
1 40545U 15017B   26058.19060141 -.00000102  00000+0  00000+0 0  9997
2 40545  56.8295 344.6151 0004389 286.3298  73.6287  1.70475370 30371
GSAT0205 (GALILEO 9)    
1 40889U 15045A   26043.95434207  .00000078  00000+0  00000+0 0  9996
2 40889  53.6403 225.6057 0359599  59.9658 303.5577  1.67410800 64211
GSAT0206 (GALILEO 10)   
1 40890U 15045B   26059.93922248  .00000021  00000+0  00000+0 0  9998
2 40890  54.9818 224.5901 0003875  49.7770 310.2097  1.70473640 65193
GSAT0209 (GALILEO 12)   
1 41174U 15079A   26057.76103078  .00000003  00000+0  00000+0 0  9992
2 41174  55.7556 104.2904 0004770 323.2858  36.7546  1.70474460 62890
GSAT0208 (GALILEO 11)   
1 41175U 15079B   26056.80807684  .00000001  00000+0  00000+0 0  9999
2 41175  55.7531 104.3136 0003630 328.1967  31.8517  1.70474379 63299
GSAT0211 (GALILEO 14)   
1 41549U 16030A   26059.86498967  .00000022  00000+0  00000+0 0  9994
2 41549  55.1331 224.6708 0003612  25.8788 334.0929  1.70473700 60827
GSAT0210 (GALILEO 13)   
1 41550U 16030B   26058.36253702  .00000038  00000+0  00000+0 0  9993
2 41550  55.1319 224.7103 0001081 189.8434 170.1193  1.70473795 60794
GSAT0207 (GALILEO 15)   
1 41859U 16069A   26059.22748061  .00000008  00000+0  00000+0 0  9997
2 41859  55.4267 104.1007 0005031 309.1503  50.8842  1.70474383 57546
GSAT0212 (GALILEO 16)   
1 41860U 16069B   26058.49445287  .00000005  00000+0  00000+0 0  9998
2 41860  55.4238 104.1162 0003541 336.3420  23.7177  1.70474549 57782
GSAT0213 (GALILEO 17)   
1 41861U 16069C   26058.27531726  .00000004  00000+0  00000+0 0  9998
2 41861  55.4260 104.1303 0005130 291.6331  68.3872  1.70474834 57644
GSAT0214 (GALILEO 18)   
1 41862U 16069D   26059.00795760  .00000007  00000+0  00000+0 0  9994
2 41862  55.4250 104.1026 0004132 296.1582  63.8775  1.70474701 57785
GSAT0215 (GALILEO 19)   
1 43055U 17079A   26058.91140776  .00000032  00000+0  00000+0 0  9990
2 43055  55.1102 224.5103 0000662  18.6698 341.2932  1.70474334 51128
GSAT0216 (GALILEO 20)   
1 43056U 17079B   26059.20262884  .00000028  00000+0  00000+0 0  9994
2 43056  55.1093 224.5024 0001682 323.3760  36.5709  1.70474475 51143
GSAT0217 (GALILEO 21)   
1 43057U 17079C   26058.83680325  .00000033  00000+0  00000+0 0  9993
2 43057  55.1101 224.5102 0002078 358.4163   1.5441  1.70474377 51121
GSAT0218 (GALILEO 22)   
1 43058U 17079D   26060.22999436  .00000018  00000+0  00000+0 0  9999
2 43058  55.1053 224.4697 0001889 305.5636  54.3694  1.70474409 51170
GSAT0221 (GALILEO 25)   
1 43564U 18060A   26059.54670036 -.00000105  00000+0  00000+0 0  9995
2 43564  57.2051 344.7173 0005804 306.7848  53.1689  1.70475369 47315
GSAT0222 (GALILEO 26)   
1 43565U 18060B   26055.66007047 -.00000092  00000+0  00000+0 0  9996
2 43565  57.2093 344.8256 0004435 285.4820  74.4799  1.70474973 47292
GSAT0219 (GALILEO 23)   
1 43566U 18060C   26053.53475141 -.00000082  00000+0  00000+0 0  9994
2 43566  57.2094 344.8846 0005774 308.6957  51.2673  1.70475208 47235
GSAT0220 (GALILEO 24)   
1 43567U 18060D   26058.44840234 -.00000102  00000+0  00000+0 0  9992
2 43567  57.2075 344.7516 0005301 308.5821  51.3768  1.70475159 47302
GSAT0223 (GALILEO 27)   
1 49809U 21116A   26048.03988929 -.00000078  00000+0  00000+0 0  9993
2 49809  57.2005 344.9238 0002865 278.1950 264.6358  1.70475508 26130
GSAT0224 (GALILEO 28)   
1 49810U 21116B   26054.89517960 -.00000088  00000+0  00000+0 0  9990
2 49810  57.1984 344.7369 0002182 291.9502 250.7131  1.70475193 26278
GSAT0225 (GALILEO 29)   
1 59598U 24079A   26059.47679627  .00000008  00000+0  00000+0 0  9994
2 59598  55.0470 104.1172 0002500 256.3085 211.1082  1.70474768 11462
GSAT0227 (GALILEO 30)   
1 59600U 24079C   26060.07188623  .00000010  00000+0  00000+0 0  9990
2 59600  55.0426 104.0995 0000415  85.7874 274.2997  1.70474778 11525
GSAT0232 (GALILEO 32)   
1 61182U 24167A   26048.66150565  .00000069  00000+0  00000+0 0  9995
2 61182  55.2225 224.5881 0003600 296.6314 116.1306  1.70443939  8265
GSAT0226 (GALILEO 31)   
1 61183U 24167B   26058.99261111  .00000031  00000+0  00000+0 0  9992
2 61183  55.2198 224.3131 0001695 129.0505 235.5609  1.70473900  8997
